[{"OBJECT_NAME":"NINGXIA-1 8","OBJECT_ID":"2021-064C","EPOCH":"2026-03-09T22:43:09.880896","MEAN_MOTION":14.08520885,"ECCENTRICITY":0.00068596,"INCLINATION":44.9956,"RA_OF_ASC_NODE":314.4246,"ARG_OF_PERICENTER":130.9681,"MEAN_ANOMALY":229.175,"EPHEMERIS_TYPE":0,"CLASSIFICATION_TYPE":"U","NORAD_CAT_ID":49020,"ELEMENT_SET_NO":999,"REV_AT_EPOCH":24023,"BSTAR":0.0001794062,"MEAN_MOTION_DOT":1.78e-6,"MEAN_MOTION_DDOT":0},{"OBJECT_NAME":"CZ-4C R\/B","OBJECT_ID":"2023-030C","EPOCH":"2026-03-09T17:22:10.485408","MEAN_MOTION":14.21874689,"ECCENTRICITY":0.00877202,"INCLINATION":98.9153,"RA_OF_ASC_NODE":111.3726,"ARG_OF_PERICENTER":142.3505,"MEAN_ANOMALY":218.3856,"EPHEMERIS_TYPE":0,"CLASSIFICATION_TYPE":"U","NORAD_CAT_ID":55838,"ELEMENT_SET_NO":999,"REV_AT_EPOCH":15568,"BSTAR":6.2077464e-5,"MEAN_MOTION_DOT":9.7e-7,"MEAN_MOTION_DDOT":0}]
